{"type": "FeatureCollection", "features": [ {"type": "Feature", "properties": {"norad_id": 31286, "name": "FENGYUN 1C DEB", "group": "fengyun-1c-debris", "lat": 75.48614710930396, "lon": 116.4445290852448, "alt_km": 860.2639869970153, "timestamp": "2025-12-21T20:41:08.241984+00:00", "meta": {"OBJECT_NAME": "FENGYUN 1C DEB", "OBJECT_ID": "1999-025BNU", "EPOCH": "2025-12-21T10:05:13.987392", "MEAN_MOTION": 14.22849794, "ECCENTRICITY": 0.00792235, "INCLINATION": 100.8596, "RA_OF_ASC_NODE": 248.0403, "ARG_OF_PERICENTER": 256.4033, "MEAN_ANOMALY": 102.8305, "EPHEMERIS_TYPE": 0, "CLASSIFICATION_TYPE": "U", "NORAD_CAT_ID": 31286, "ELEMENT_SET_NO": 999, "REV_AT_EPOCH": 64143, "BSTAR": 0.002079395, "MEAN_MOTION_DOT": 4.763e-05, "MEAN_MOTION_DDOT": 0}, "tle": {"line1": "1 31286U 99025BNU 25355.42030078  .00004763  00000+0  20794-2 0  9992", "line2": "2 31286 100.8596 248.0403 0079223 256.4033 102.8305 14.22849794641435"}}, "geometry": {"type": "Point", "coordinates": [116.4445290852448, 75.48614710930396]}}, {"type": "Feature", "properties": {"norad_id": 31287, "name": "FENGYUN 1C DEB", "group": "fengyun-1c-debris", "lat": -38.122679016145284, "lon": 59.98168525422366, "alt_km": 799.7311173355001, "timestamp": "2025-12-21T20:41:08.241993+00:00", "meta": {"OBJECT_NAME": "FENGYUN 1C DEB", "OBJECT_ID": "1999-025BNV", "EPOCH": "2025-12-17T09:14:55.199040", "MEAN_MOTION": 14.280549, "ECCENTRICITY": 0.0027206, "INCLINATION": 99.41, "RA_OF_ASC_NODE": 47.6846, "ARG_OF_PERICENTER": 50.1324, "MEAN_ANOMALY": 310.2241, "EPHEMERIS_TYPE": 0, "CLASSIFICATION_TYPE": "U", "NORAD_CAT_ID": 31287, "ELEMENT_SET_NO": 999, "REV_AT_EPOCH": 96752, "BSTAR": 0.0011667317, "MEAN_MOTION_DOT": 2.86e-05, "MEAN_MOTION_DDOT": 0}, "tle": {"line1": "1 31287U 99025BNV 25351.38536110  .00002860  00000+0  11667-2 0  9997", "line2": "2 31287  99.4100  47.6846 0027206  50.1324 310.2241 14.28054900967528"}}, "geometry": {"type": "Point", "coordinates": [59.98168525422366, -38.122679016145284]}}, {"type": "Feature", "properties": {"norad_id": 31288, "name": "FENGYUN 1C DEB", "group": "fengyun-1c-debris", "lat": 5.748571818435124, "lon": -24.1393021664226, "alt_km": 581.1216830102485, "timestamp": "2025-12-21T20:41:08.242002+00:00", "meta": {"OBJECT_NAME": "FENGYUN 1C DEB", "OBJECT_ID": "1999-025BNW", "EPOCH": "2025-12-20T16:41:27.142656", "MEAN_MOTION": 14.96498831, "ECCENTRICITY": 0.00226672, "INCLINATION": 98.7466, "RA_OF_ASC_NODE": 153.6699, "ARG_OF_PERICENTER": 273.215, "MEAN_ANOMALY": 100.5967, "EPHEMERIS_TYPE": 0, "CLASSIFICATION_TYPE": "U", "NORAD_CAT_ID": 31288, "ELEMENT_SET_NO": 999, "REV_AT_EPOCH": 97676, "BSTAR": 0.0033479483, "MEAN_MOTION_DOT": 0.00038351, "MEAN_MOTION_DDOT": 0}, "tle": {"line1": "1 31288U 99025BNW 25354.69545304  .00038351  00000+0  33479-2 0  9999", "line2": "2 31288  98.7466 153.6699 0022667 273.2150 100.5967 14.96498831976762"}}, "geometry": {"type": "Point", "coordinates": [-24.1393021664226, 5.748571818435124]}}, {"type": "Feature", "properties": {"norad_id": 31293, "name": "FENGYUN 1C DEB", "group": "fengyun-1c-debris", "lat": 67.95773017499246, "lon": -155.19280760095262, "alt_km": 808.2471340968423, "timestamp": "2025-12-21T20:41:08.242011+00:00", "meta": {"OBJECT_NAME": "FENGYUN 1C DEB", "OBJECT_ID": "1999-025BPB", "EPOCH": "2025-12-18T06:33:54.864288", "MEAN_MOTION": 14.3081483, "ECCENTRICITY": 0.01256227, "INCLINATION": 98.4226, "RA_OF_ASC_NODE": 359.8639, "ARG_OF_PERICENTER": 228.3966, "MEAN_ANOMALY": 130.64, "EPHEMERIS_TYPE": 0, "CLASSIFICATION_TYPE": "U", "NORAD_CAT_ID": 31293, "ELEMENT_SET_NO": 999, "REV_AT_EPOCH": 65323, "BSTAR": 6.7010406e-05, "MEAN_MOTION_DOT": 1.47e-06, "MEAN_MOTION_DDOT": 0}, "tle": {"line1": "1 31293U 99025BPB 25352.27355167  .00000147  00000+0  67010-4 0  9995", "line2": "2 31293  98.4226 359.8639 0125622 228.3966 130.6400 14.30814830653233"}}, "geometry": {"type": "Point", "coordinates": [-155.19280760095262, 67.95773017499246]}}, {"type": "Feature", "properties": {"norad_id": 31294, "name": "FENGYUN 1C DEB", "group": "fengyun-1c-debris", "lat": 27.832390964096103, "lon": -13.459830864855887, "alt_km": 818.8610466327937, "timestamp": "2025-12-21T20:41:08.242020+00:00", "meta": {"OBJECT_NAME": "FENGYUN 1C DEB", "OBJECT_ID": "1999-025BPC", "EPOCH": "2025-12-19T22:44:39.754176", "MEAN_MOTION": 14.15326352, "ECCENTRICITY": 0.0099306, "INCLINATION": 98.5431, "RA_OF_ASC_NODE": 349.2579, "ARG_OF_PERICENTER": 320.3267, "MEAN_ANOMALY": 39.0671, "EPHEMERIS_TYPE": 0, "CLASSIFICATION_TYPE": "U", "NORAD_CAT_ID": 31294, "ELEMENT_SET_NO": 999, "REV_AT_EPOCH": 96955, "BSTAR": 0.00037135, "MEAN_MOTION_DOT": 7.16e-06, "MEAN_MOTION_DDOT": 0}, "tle": {"line1": "1 31294U 99025BPC 25353.94768234  .00000716  00000+0  37135-3 0  9990", "line2": "2 31294  98.5431 349.2579 0099306 320.3267  39.0671 14.15326352969552"}}, "geometry": {"type": "Point", "coordinates": [-13.459830864855887, 27.832390964096103]}}, {"type": "Feature", "properties": {"norad_id": 31295, "name": "FENGYUN 1C DEB", "group": "fengyun-1c-debris", "lat": 81.05767708247787, "lon": 111.56637325169241, "alt_km": 939.3256211841253, "timestamp": "2025-12-21T20:41:08.242029+00:00", "meta": {"OBJECT_NAME": "FENGYUN 1C DEB", "OBJECT_ID": "1999-025BPD", "EPOCH": "2025-12-21T06:30:47.231136", "MEAN_MOTION": 13.9683376, "ECCENTRICITY": 0.0077134, "INCLINATION": 98.3164, "RA_OF_ASC_NODE": 179.3974, "ARG_OF_PERICENTER": 227.0231, "MEAN_ANOMALY": 132.4451, "EPHEMERIS_TYPE": 0, "CLASSIFICATION_TYPE": "U", "NORAD_CAT_ID": 31295, "ELEMENT_SET_NO": 999, "REV_AT_EPOCH": 95622, "BSTAR": -4.1866e-05, "MEAN_MOTION_DOT": -9.8e-07, "MEAN_MOTION_DDOT": 0}, "tle": {"line1": "1 31295U 99025BPD 25355.27137999 -.00000098  00000+0 -41866-4 0  9999", "line2": "2 31295  98.3164 179.3974 0077134 227.0231 132.4451 13.96833760956222"}}, "geometry": {"type": "Point", "coordinates": [111.56637325169241, 81.05767708247787]}}, {"type": "Feature", "properties": {"norad_id": 31296, "name": "FENGYUN 1C DEB", "group": "fengyun-1c-debris", "lat": -6.081904404227293, "lon": 90.81929113983779, "alt_km": 645.0181950568367, "timestamp": "2025-12-21T20:41:08.242038+00:00", "meta": {"OBJECT_NAME": "FENGYUN 1C DEB", "OBJECT_ID": "1999-025BPE", "EPOCH": "2025-12-21T11:41:06.848448", "MEAN_MOTION": 14.71845246, "ECCENTRICITY": 0.00197125, "INCLINATION": 99.0673, "RA_OF_ASC_NODE": 271.3767, "ARG_OF_PERICENTER": 184.4687, "MEAN_ANOMALY": 175.6344, "EPHEMERIS_TYPE": 0, "CLASSIFICATION_TYPE": "U", "NORAD_CAT_ID": 31296, "ELEMENT_SET_NO": 999, "REV_AT_EPOCH": 97478, "BSTAR": 0.0030427519, "MEAN_MOTION_DOT": 0.00019079, "MEAN_MOTION_DDOT": 0}, "tle": {"line1": "1 31296U 99025BPE 25355.48688482  .00019079  00000+0  30428-2 0  9998", "line2": "2 31296  99.0673 271.3767 0019712 184.4687 175.6344 14.71845246974785"}}, "geometry": {"type": "Point", "coordinates": [90.81929113983779, -6.081904404227293]}}, {"type": "Feature", "properties": {"norad_id": 31297, "name": "FENGYUN 1C DEB", "group": "fengyun-1c-debris", "lat": -5.098012231507427, "lon": -47.39038003603468, "alt_km": 704.3559090797698, "timestamp": "2025-12-21T20:41:08.242046+00:00", "meta": {"OBJECT_NAME": "FENGYUN 1C DEB", "OBJECT_ID": "1999-025BPF", "EPOCH": "2025-12-21T08:27:04.379328", "MEAN_MOTION": 14.57108427, "ECCENTRICITY": 0.01395937, "INCLINATION": 98.9347, "RA_OF_ASC_NODE": 132.8672, "ARG_OF_PERICENTER": 96.8123, "MEAN_ANOMALY": 294.1487, "EPHEMERIS_TYPE": 0, "CLASSIFICATION_TYPE": "U", "NORAD_CAT_ID": 31297, "ELEMENT_SET_NO": 999, "REV_AT_EPOCH": 99441, "BSTAR": 0.00025620154, "MEAN_MOTION_DOT": 1.259e-05, "MEAN_MOTION_DDOT": 0}, "tle": {"line1": "1 31297U 99025BPF 25355.35213402  .00001259  00000+0  25620-3 0  9991", "line2": "2 31297  98.9347 132.8672 0139593  96.8123 294.1487 14.57108427994413"}}, "geometry": {"type": "Point", "coordinates": [-47.39038003603468, -5.098012231507427]}}, {"type": "Feature", "properties": {"norad_id": 31300, "name": "FENGYUN 1C DEB", "group": "fengyun-1c-debris", "lat": -10.338618563380223, "lon": -105.91683519124707, "alt_km": 885.2627144292883, "timestamp": "2025-12-21T20:41:08.242056+00:00", "meta": {"OBJECT_NAME": "FENGYUN 1C DEB", "OBJECT_ID": "1999-025BPJ", "EPOCH": "2025-12-21T00:14:35.388384", "MEAN_MOTION": 14.15159695, "ECCENTRICITY": 0.00597807, "INCLINATION": 99.5422, "RA_OF_ASC_NODE": 74.9312, "ARG_OF_PERICENTER": 36.7902, "MEAN_ANOMALY": 136.2643, "EPHEMERIS_TYPE": 0, "CLASSIFICATION_TYPE": "U", "NORAD_CAT_ID": 31300, "ELEMENT_SET_NO": 999, "REV_AT_EPOCH": 96291, "BSTAR": 0.0007547015, "MEAN_MOTION_DOT": 1.441e-05, "MEAN_MOTION_DDOT": 0}, "tle": {"line1": "1 31300U 99025BPJ 25355.01013181  .00001441  00000+0  75470-3 0  9992", "line2": "2 31300  99.5422  74.9312 0059780  36.7902 136.2643 14.15159695962910"}}, "geometry": {"type": "Point", "coordinates": [-105.91683519124707, -10.338618563380223]}}, {"type": "Feature", "properties": {"norad_id": 31302, "name": "FENGYUN 1C DEB", "group": "fengyun-1c-debris", "lat": 73.54941140739878, "lon": 4.4168909481752685, "alt_km": 779.8532510371688, "timestamp": "2025-12-21T20:41:08.242065+00:00", "meta": {"OBJECT_NAME": "FENGYUN 1C DEB", "OBJECT_ID": "1999-025BPL", "EPOCH": "2025-12-19T15:12:58.171104", "MEAN_MOTION": 14.27574345, "ECCENTRICITY": 0.002659, "INCLINATION": 99.4129, "RA_OF_ASC_NODE": 36.2, "ARG_OF_PERICENTER": 35.1141, "MEAN_ANOMALY": 117.7071, "EPHEMERIS_TYPE": 0, "CLASSIFICATION_TYPE": "U", "NORAD_CAT_ID": 31302, "ELEMENT_SET_NO": 999, "REV_AT_EPOCH": 96456, "BSTAR": 0.00096178, "MEAN_MOTION_DOT": 2.325e-05, "MEAN_MOTION_DDOT": 0}, "tle": {"line1": "1 31302U 99025BPL 25353.63400661  .00002325  00000+0  96178-3 0  9993", "line2": "2 31302  99.4129  36.2000 0026590  35.1141 117.7071 14.27574345964569"}}, "geometry": {"type": "Point", "coordinates": [4.4168909481752685, 73.54941140739878]}}]}